*******************************************************************************
 Revised: April 12, 2021                 Earth                              399
 
 GEOPHYSICAL PROPERTIES (revised May 9, 2022):
  Vol. Mean Radius (km)    = 6371.01+-0.02   Mass x10^24 (kg)= 5.97219+-0.0006
  Equ. radius, km          = 6378.137        Mass layers:
  Polar axis, km           = 6356.752          Atmos         = 5.1   x 10^18 kg
  Flattening               = 1/298.257223563   oceans        = 1.4   x 10^21 kg
  Density, g/cm^3          = 5.51              crust         = 2.6   x 10^22 kg
  J2 (IERS 2010)           = 0.00108262545     mantle        = 4.043 x 10^24 kg
  g_p, m/s^2  (polar)      = 9.8321863685      outer core    = 1.835 x 10^24 kg
  g_e, m/s^2  (equatorial) = 9.7803267715      inner core    = 9.675 x 10^22 kg
  g_o, m/s^2               = 9.82022         Fluid core rad  = 3480 km
  GM, km^3/s^2             = 398600.435436   Inner core rad  = 1215 km
  GM 1-sigma, km^3/s^2     =      0.0014     Escape velocity = 11.186 km/s
  Rot. Rate (rad/s)        = 0.00007292115   Surface area:
  Mean sidereal day, hr    = 23.9344695944     land          = 1.48 x 10^8 km
  Mean solar day 2000.0, s = 86400.002         sea           = 3.62 x 10^8 km
  Mean solar day 1820.0, s = 86400.0         Love no., k2    = 0.299
  Moment of inertia        = 0.3308          Atm. pressure   = 1.0 bar
  Mean surface temp (Ts), K= 287.6           Volume, km^3    = 1.08321 x 10^12
  Mean effect. temp (Te), K= 255             Magnetic moment = 0.61 gauss Rp^3
  Geometric albedo         = 0.367           Vis. mag. V(1,0)= -3.86
  Solar Constant (W/m^2)   = 1367.6 (mean), 1414 (perihelion), 1322 (aphelion)
 HELIOCENTRIC ORBIT CHARACTERISTICS:
  Obliquity to orbit, deg  = 23.4392911  Sidereal orb period  = 1.0000174 y
  Orbital speed, km/s      = 29.79       Sidereal orb period  = 365.25636 d
  Mean daily motion, deg/d = 0.9856474   Hill's sphere radius = 234.9       
*******************************************************************************


*******************************************************************************
Ephemeris / WWW_USER Fri Jul  5 03:35:18 2024 Pasadena, USA      / Horizons
*******************************************************************************
Target body name: Earth (399)                     {source: DE441}
Center body name: Sun (10)                        {source: DE441}
Center-site name: BODY CENTER
*******************************************************************************
Start time      : A.D. 2024-Mar-31 00:00:00.0000 TDB
Stop  time      : A.D. 2030-Mar-31 00:00:00.0000 TDB
Step-size       : 43200 minutes
*******************************************************************************
Center geodetic : 0.0, 0.0, 0.0                   {E-lon(deg),Lat(deg),Alt(km)}
Center cylindric: 0.0, 0.0, 0.0                   {E-lon(deg),Dxy(km),Dz(km)}
Center radii    : 695700.0, 695700.0, 695700.0 km {Equator_a, b, pole_c}
Output units    : KM-S
Calendar mode   : Mixed Julian/Gregorian
Output type     : GEOMETRIC cartesian states
Output format   : 3 (position, velocity, LT, range, range-rate)
Reference frame : Ecliptic of J2000.0
*******************************************************************************
JDTDB
   X     Y     Z
   VX    VY    VZ
   LT    RG    RR
*******************************************************************************
$$SOE
2461660.500000000 = A.D. 2027-Sep-12 00:00:00.0000 TDB 
 X = 1.476405266279885E+08 Y =-2.965591474542623E+07 Z = 1.082376652544364E+03
 VX= 5.372882190442885E+00 VY= 2.908681047991864E+01 VZ=-2.946603089624134E-03
 LT= 5.023125128104531E+02 RG= 1.505895028996022E+08 RR=-4.604624994165334E-01
2461690.500000000 = A.D. 2027-Oct-12 00:00:00.0000 TDB 
 X = 1.419765216148124E+08 Y = 4.629234404149868E+07 Z =-3.981295937757939E+03
 VX=-9.722454493974109E+00 VY= 2.819869238983986E+01 VZ=-2.655098550047086E-03
 LT= 4.981209233175400E+02 RG= 1.493328959825948E+08 RR=-5.020775222888164E-01
2461720.500000000 = A.D. 2027-Nov-11 00:00:00.0000 TDB 
 X = 9.917209873203012E+07 Y = 1.100409418550879E+08 Z =-7.985903917908669E+03
 VX=-2.260962177447548E+01 VY= 1.981936957891380E+01 VZ=-1.554933706488626E-03
 LT= 4.941267023765449E+02 RG= 1.481354586688989E+08 RR=-4.138208070348232E-01
2461750.500000000 = A.D. 2027-Dec-11 00:00:00.0000 TDB 
 X = 2.985445104961870E+07 Y = 1.442616410912204E+08 Z =-9.814781567372382E+03
 VX=-2.964583134575739E+01 VY= 5.916719192826977E+00 VZ= 6.808024238580401E-05
 LT= 4.914012705356686E+02 RG= 1.473183947582110E+08 RR=-2.138524576236728E-01
2461780.500000000 = A.D. 2028-Jan-10 00:00:00.0000 TDB 
 X =-4.755119138650959E+07 Y = 1.392119770507502E+08 Z =-8.916229623690248E+03
 VX=-2.866154122183258E+01 VY=-9.742377603555127E+00 VZ= 1.713181908245431E-03
 LT= 4.907031738928168E+02 RG= 1.471091106497290E+08 RR= 4.510100972950694E-02
2461810.500000000 = A.D. 2028-Feb-09 00:00:00.0000 TDB 
 X =-1.119716211894051E+08 Y = 9.611696699662095E+07 Z =-5.527010137371719E+03
 VX=-1.987610029369111E+01 VY=-2.270905303879148E+01 VZ= 2.795847839372811E-03
 LT= 4.922316115323478E+02 RG= 1.475673247265837E+08 RR= 2.902665341426603E-01
2461840.500000000 = A.D. 2028-Mar-10 00:00:00.0000 TDB 
 X =-1.460998253294553E+08 Y = 2.694815756131126E+07 Z =-6.184058624394238E+02
 VX=-5.883063794215656E+00 VY=-2.939483874732476E+01 VZ= 2.918042249369535E-03
 LT= 4.955572857083797E+02 RG= 1.485643367623234E+08 RR= 4.535263734792763E-01
2461870.500000000 = A.D. 2028-Apr-09 00:00:00.0000 TDB 
 X =-1.414273900973326E+08 Y =-4.945896319902943E+07 Z = 4.441093403741717E+03
 VX= 9.345433051643656E+00 VY=-2.821832784802958E+01 VZ= 2.093791769695486E-03
 LT= 4.997664698884967E+02 RG= 1.498262184338554E+08 RR= 4.935654308187775E-01
2461900.500000000 = A.D. 2028-May-09 00:00:00.0000 TDB 
 X =-1.000538630217057E+08 Y =-1.131193306007895E+08 Z = 8.317132195040584E+03
 VX= 2.181811910826481E+01 VY=-1.983925336688290E+01 VZ= 7.226645408930921E-04
 LT= 5.037453836726706E+02 RG= 1.510190667773830E+08 RR= 4.053525634110978E-01
2461930.500000000 = A.D. 2028-Jun-08 00:00:00.0000 TDB 
 X =-3.327035860926372E+07 Y =-1.481503040836419E+08 Z = 1.007268022781610E+04
 VX= 2.856741753314681E+01 VY=-6.637006540494126E+00 VZ=-6.937924270928875E-04
 LT= 5.064842039484510E+02 RG= 1.518401444398794E+08 RR= 2.161898913077654E-01
2461960.500000000 = A.D. 2028-Jul-08 00:00:00.0000 TDB 
 X = 4.184919133955632E+07 Y =-1.462177977056500E+08 Z = 9.282543667457998E+03
 VX= 2.814314192785930E+01 VY= 8.080459103952407E+00 VZ=-1.795403469480483E-03
 LT= 5.073135877534540E+02 RG= 1.520887874494067E+08 RR=-2.458576943005818E-02
2461990.500000000 = A.D. 2028-Aug-07 00:00:00.0000 TDB 
 X = 1.065709691563908E+08 Y =-1.079699689771527E+08 Z = 6.160127966448665E+03
 VX= 2.071001824403108E+01 VY= 2.080517758227444E+01 VZ=-2.325113436030257E-03
 LT= 5.060386731331280E+02 RG= 1.517065776616390E+08 RR=-2.587078130516647E-01
2462020.500000000 = A.D. 2028-Sep-06 00:00:00.0000 TDB 
 X = 1.446017863747090E+08 Y =-4.273970943343140E+07 Z = 1.512143334876746E+03
 VX= 7.959480873115506E+00 VY= 2.844489720249837E+01 VZ=-2.198545999753776E-03
 LT= 5.029673105377180E+02 RG= 1.507858063197518E+08 RR=-4.295596073408933E-01
2462050.500000000 = A.D. 2028-Oct-06 00:00:00.0000 TDB 
 X = 1.457972142547490E+08 Y = 3.330393640712114E+07 Z =-3.478779747759923E+03
 VX=-7.111202346512932E+00 VY= 2.892096203911122E+01 VZ=-1.479341116457533E-03
 LT= 4.988537738011751E+02 RG= 1.495525990304303E+08 RR=-4.922121505813166E-01
2462080.500000000 = A.D. 2028-Nov-05 00:00:00.0000 TDB 
 X = 1.090057246041463E+08 Y = 1.005833783164004E+08 Z =-7.525744062043726E+03
 VX=-2.067427534128375E+01 VY= 2.177848711303875E+01 VZ=-3.861552714825578E-04
 LT= 4.947472321766502E+02 RG= 1.483214888229347E+08 RR=-4.251612722268360E-01
2462110.500000000 = A.D. 2028-Dec-05 00:00:00.0000 TDB 
 X = 4.316960720298836E+07 Y = 1.409581850484490E+08 Z =-9.552980506278574E+03
 VX=-2.895579484993295E+01 VY= 8.616336413874416E+00 VZ= 7.338047023082162E-04
 LT= 4.917420966827337E+02 RG= 1.474205718665904E+08 RR=-2.405848370839176E-01
2462140.500000000 = A.D. 2029-Jan-04 00:00:00.0000 TDB 
 X =-3.434912947329006E+07 Y = 1.430324347352703E+08 Z =-9.006071769230068E+03
 VX=-2.944244646295064E+01 VY=-7.056585611821257E+00 VZ= 1.497508681976178E-03
 LT= 4.906697246135884E+02 RG= 1.470990828080907E+08 RR= 1.360831804486408E-02
2462170.500000000 = A.D. 2029-Feb-03 00:00:00.0000 TDB 
 X =-1.024806438634778E+08 Y = 1.060120331849502E+08 Z =-6.054056333504617E+03
 VX=-2.190225005870035E+01 VY=-2.080261650832654E+01 VZ= 1.687821958023861E-03
 LT= 4.918326921336794E+02 RG= 1.474477316995130E+08 RR= 2.660536434821322E-01
2462200.500000000 = A.D. 2029-Mar-05 00:00:00.0000 TDB 
 X =-1.428243076497551E+08 Y = 4.017792453289184E+07 Z =-1.521810867261142E+03
 VX=-8.558802968165331E+00 VY=-2.877738414344297E+01 VZ= 1.391388703007479E-03
 LT= 4.949022087508254E+02 RG= 1.483679496310391E+08 RR= 4.461174931429694E-01
2462230.500000000 = A.D. 2029-Apr-04 00:00:00.0000 TDB 
 X =-1.450983538269431E+08 Y =-3.644670231284668E+07 Z = 3.390368905276060E+03
 VX= 6.761096889903958E+00 VY=-2.899967298010393E+01 VZ= 8.611730171921295E-04
 LT= 4.990312221043009E+02 RG= 1.496057966933923E+08 RR= 5.074564227047081E-01
2462260.500000000 = A.D. 2029-May-04 00:00:00.0000 TDB 
 X =-1.095650516113812E+08 Y =-1.036626402171424E+08 Z = 7.435300411559641E+03
 VX= 1.997756441188509E+01 VY=-2.175429507705274E+01 VZ= 2.998162212080047E-04
 LT= 5.031230695337661E+02 RG= 1.508325016920326E+08 RR= 4.393269976832386E-01
